{"type": "FeatureCollection", "features": [ {"type": "Feature", "properties": {"norad_id": 66446, "name": "STARLINK-34986", "group": "last-30-days", "lat": -27.016332714477084, "lon": -49.40351650796629, "alt_km": 417.4180401609319, "timestamp": "2025-12-04T03:47:53.335433+00:00", "meta": {"OBJECT_NAME": "STARLINK-34986", "OBJECT_ID": "2025-259AA", "EPOCH": "2025-12-03T12:00:02.998944", "MEAN_MOTION": 15.50674298, "ECCENTRICITY": 0.0001429, "INCLINATION": 43.0002, "RA_OF_ASC_NODE": 101.2741, "ARG_OF_PERICENTER": 272.4795, "MEAN_ANOMALY": 230.6716, "EPHEMERIS_TYPE": 0, "CLASSIFICATION_TYPE": "U", "NORAD_CAT_ID": 66446, "ELEMENT_SET_NO": 999, "REV_AT_EPOCH": 479, "BSTAR": -0.0032739, "MEAN_MOTION_DOT": -0.00188493, "MEAN_MOTION_DDOT": 0}, "tle": {"line1": "1 66446U 25259AA  25337.50003471 -.00188493  00000+0 -32739-2 0  9999", "line2": "2 66446  43.0002 101.2741 0001429 272.4795 230.6716 15.50674298  4797"}}, "geometry": {"type": "Point", "coordinates": [-49.40351650796629, -27.016332714477084]}}, {"type": "Feature", "properties": {"norad_id": 66447, "name": "STARLINK-34851", "group": "last-30-days", "lat": -29.181638294382243, "lon": -45.766336691415795, "alt_km": 417.12929603933753, "timestamp": "2025-12-04T03:47:53.335443+00:00", "meta": {"OBJECT_NAME": "STARLINK-34851", "OBJECT_ID": "2025-259AB", "EPOCH": "2025-12-03T12:00:02.998944", "MEAN_MOTION": 15.50572461, "ECCENTRICITY": 0.0001609, "INCLINATION": 43.0002, "RA_OF_ASC_NODE": 101.2647, "ARG_OF_PERICENTER": 270.98, "MEAN_ANOMALY": 236.0497, "EPHEMERIS_TYPE": 0, "CLASSIFICATION_TYPE": "U", "NORAD_CAT_ID": 66447, "ELEMENT_SET_NO": 999, "REV_AT_EPOCH": 468, "BSTAR": -0.00060388, "MEAN_MOTION_DOT": -0.000356, "MEAN_MOTION_DDOT": 0}, "tle": {"line1": "1 66447U 25259AB  25337.50003471 -.00035600  00000+0 -60388-3 0  9993", "line2": "2 66447  43.0002 101.2647 0001609 270.9800 236.0497 15.50572461  4686"}}, "geometry": {"type": "Point", "coordinates": [-45.766336691415795, -29.181638294382243]}}, {"type": "Feature", "properties": {"norad_id": 66448, "name": "STARLINK-35355", "group": "last-30-days", "lat": -30.18979024727083, "lon": -43.958413575128944, "alt_km": 417.57529355905626, "timestamp": "2025-12-04T03:47:53.335466+00:00", "meta": {"OBJECT_NAME": "STARLINK-35355", "OBJECT_ID": "2025-259AC", "EPOCH": "2025-12-03T12:00:02.998944", "MEAN_MOTION": 15.50658606, "ECCENTRICITY": 0.0001502, "INCLINATION": 43.0002, "RA_OF_ASC_NODE": 101.2601, "ARG_OF_PERICENTER": 277.7216, "MEAN_ANOMALY": 231.1921, "EPHEMERIS_TYPE": 0, "CLASSIFICATION_TYPE": "U", "NORAD_CAT_ID": 66448, "ELEMENT_SET_NO": 999, "REV_AT_EPOCH": 479, "BSTAR": -0.0029669, "MEAN_MOTION_DOT": -0.00171133, "MEAN_MOTION_DDOT": 0}, "tle": {"line1": "1 66448U 25259AC  25337.50003471 -.00171133  00000+0 -29669-2 0  9992", "line2": "2 66448  43.0002 101.2601 0001502 277.7216 231.1921 15.50658606  4791"}}, "geometry": {"type": "Point", "coordinates": [-43.958413575128944, -30.18979024727083]}}, {"type": "Feature", "properties": {"norad_id": 66449, "name": "STARLINK-34720", "group": "last-30-days", "lat": -31.218016043664033, "lon": -42.02651971132123, "alt_km": 417.38564508744, "timestamp": "2025-12-04T03:47:53.335479+00:00", "meta": {"OBJECT_NAME": "STARLINK-34720", "OBJECT_ID": "2025-259AD", "EPOCH": "2025-12-03T12:00:02.998944", "MEAN_MOTION": 15.50553488, "ECCENTRICITY": 0.0001506, "INCLINATION": 43.0002, "RA_OF_ASC_NODE": 101.2546, "ARG_OF_PERICENTER": 276.089, "MEAN_ANOMALY": 234.8199, "EPHEMERIS_TYPE": 0, "CLASSIFICATION_TYPE": "U", "NORAD_CAT_ID": 66449, "ELEMENT_SET_NO": 999, "REV_AT_EPOCH": 468, "BSTAR": -0.0006411, "MEAN_MOTION_DOT": -0.00037737, "MEAN_MOTION_DDOT": 0}, "tle": {"line1": "1 66449U 25259AD  25337.50003471 -.00037737  00000+0 -64110-3 0  9995", "line2": "2 66449  43.0002 101.2546 0001506 276.0890 234.8199 15.50553488  4681"}}, "geometry": {"type": "Point", "coordinates": [-42.02651971132123, -31.218016043664033]}}, {"type": "Feature", "properties": {"norad_id": 66450, "name": "STARLINK-35334", "group": "last-30-days", "lat": -32.20108524339948, "lon": -40.084378310097385, "alt_km": 417.22683142472033, "timestamp": "2025-12-04T03:47:53.335489+00:00", "meta": {"OBJECT_NAME": "STARLINK-35334", "OBJECT_ID": "2025-259AE", "EPOCH": "2025-12-03T12:00:02.998944", "MEAN_MOTION": 15.50587513, "ECCENTRICITY": 0.0001427, "INCLINATION": 43.0001, "RA_OF_ASC_NODE": 101.249, "ARG_OF_PERICENTER": 266.4199, "MEAN_ANOMALY": 246.3289, "EPHEMERIS_TYPE": 0, "CLASSIFICATION_TYPE": "U", "NORAD_CAT_ID": 66450, "ELEMENT_SET_NO": 999, "REV_AT_EPOCH": 479, "BSTAR": -0.0005835, "MEAN_MOTION_DOT": -0.00034432, "MEAN_MOTION_DDOT": 0}, "tle": {"line1": "1 66450U 25259AE  25337.50003471 -.00034432  00000+0 -58350-3 0  9995", "line2": "2 66450  43.0001 101.2490 0001427 266.4199 246.3289 15.50587513  4793"}}, "geometry": {"type": "Point", "coordinates": [-40.084378310097385, -32.20108524339948]}}, {"type": "Feature", "properties": {"norad_id": 66454, "name": "VIASAT-3 F2", "group": "last-30-days", "lat": 5.511138929940251, "lon": 32.51762762114227, "alt_km": 16179.364992458195, "timestamp": "2025-12-04T03:47:53.335502+00:00", "meta": {"OBJECT_NAME": "VIASAT-3 F2", "OBJECT_ID": "2025-261A", "EPOCH": "2025-12-03T04:22:55.726752", "MEAN_MOTION": 2.28102609, "ECCENTRICITY": 0.23421704, "INCLINATION": 5.5737, "RA_OF_ASC_NODE": 293.2208, "ARG_OF_PERICENTER": 184.0512, "MEAN_ANOMALY": 219.9832, "EPHEMERIS_TYPE": 0, "CLASSIFICATION_TYPE": "U", "NORAD_CAT_ID": 66454, "ELEMENT_SET_NO": 999, "REV_AT_EPOCH": 43, "BSTAR": 0, "MEAN_MOTION_DOT": -5.2e-07, "MEAN_MOTION_DDOT": 0}, "tle": {"line1": "1 66454U 25261A   25337.18258943 -.00000052  00000+0  00000+0 0  9997", "line2": "2 66454   5.5737 293.2208 2342170 184.0512 219.9832  2.28102609   431"}}, "geometry": {"type": "Point", "coordinates": [32.51762762114227, 5.511138929940251]}}, {"type": "Feature", "properties": {"norad_id": 66455, "name": "ATLAS 5 CENTAUR R/B", "group": "last-30-days", "lat": 6.168562874003564, "lon": 23.607054944335257, "alt_km": 16997.094712186696, "timestamp": "2025-12-04T03:47:53.335516+00:00", "meta": {"OBJECT_NAME": "ATLAS 5 CENTAUR R/B", "OBJECT_ID": "2025-261B", "EPOCH": "2025-12-03T04:21:10.894176", "MEAN_MOTION": 2.28259326, "ECCENTRICITY": 0.23296479, "INCLINATION": 6.1583, "RA_OF_ASC_NODE": 292.5721, "ARG_OF_PERICENTER": 184.5618, "MEAN_ANOMALY": 210.3221, "EPHEMERIS_TYPE": 0, "CLASSIFICATION_TYPE": "U", "NORAD_CAT_ID": 66455, "ELEMENT_SET_NO": 999, "REV_AT_EPOCH": 43, "BSTAR": 0, "MEAN_MOTION_DOT": -5.2e-07, "MEAN_MOTION_DDOT": 0}, "tle": {"line1": "1 66455U 25261B   25337.18137609 -.00000052  00000+0  00000+0 0  9993", "line2": "2 66455   6.1583 292.5721 2329647 184.5618 210.3221  2.28259326   432"}}, "geometry": {"type": "Point", "coordinates": [23.607054944335257, 6.168562874003564]}}, {"type": "Feature", "properties": {"norad_id": 66456, "name": "STARLINK-35643", "group": "last-30-days", "lat": -41.10788023472004, "lon": 10.809943012675202, "alt_km": 399.2645645119019, "timestamp": "2025-12-04T03:47:53.335527+00:00", "meta": {"OBJECT_NAME": "STARLINK-35643", "OBJECT_ID": "2025-262A", "EPOCH": "2025-12-03T12:00:02.998944", "MEAN_MOTION": 15.59725186, "ECCENTRICITY": 0.0001128, "INCLINATION": 42.9999, "RA_OF_ASC_NODE": 125.2456, "ARG_OF_PERICENTER": 273.4229, "MEAN_ANOMALY": 244.4864, "EPHEMERIS_TYPE": 0, "CLASSIFICATION_TYPE": "U", "NORAD_CAT_ID": 66456, "ELEMENT_SET_NO": 999, "REV_AT_EPOCH": 415, "BSTAR": -0.029476, "MEAN_MOTION_DOT": -0.02151943, "MEAN_MOTION_DDOT": 0}, "tle": {"line1": "1 66456U 25262A   25337.50003471 -.02151943  00000+0 -29476-1 0  9999", "line2": "2 66456  42.9999 125.2456 0001128 273.4229 244.4864 15.59725186  4158"}}, "geometry": {"type": "Point", "coordinates": [10.809943012675202, -41.10788023472004]}}, {"type": "Feature", "properties": {"norad_id": 66457, "name": "STARLINK-35466", "group": "last-30-days", "lat": -41.916284310167626, "lon": 15.799387599029904, "alt_km": 399.2013997889544, "timestamp": "2025-12-04T03:47:53.335537+00:00", "meta": {"OBJECT_NAME": "STARLINK-35466", "OBJECT_ID": "2025-262B", "EPOCH": "2025-12-03T12:00:02.998944", "MEAN_MOTION": 15.59723967, "ECCENTRICITY": 0.0001225, "INCLINATION": 42.9996, "RA_OF_ASC_NODE": 125.2356, "ARG_OF_PERICENTER": 272.6487, "MEAN_ANOMALY": 249.0947, "EPHEMERIS_TYPE": 0, "CLASSIFICATION_TYPE": "U", "NORAD_CAT_ID": 66457, "ELEMENT_SET_NO": 999, "REV_AT_EPOCH": 415, "BSTAR": -0.029452, "MEAN_MOTION_DOT": -0.02150357, "MEAN_MOTION_DDOT": 0}, "tle": {"line1": "1 66457U 25262B   25337.50003471 -.02150357  00000+0 -29452-1 0  9992", "line2": "2 66457  42.9996 125.2356 0001225 272.6487 249.0947 15.59723967  4158"}}, "geometry": {"type": "Point", "coordinates": [15.799387599029904, -41.916284310167626]}}, {"type": "Feature", "properties": {"norad_id": 66458, "name": "STARLINK-35684", "group": "last-30-days", "lat": -41.538846443909044, "lon": 13.288065756347494, "alt_km": 399.11456451830963, "timestamp": "2025-12-04T03:47:53.335551+00:00", "meta": {"OBJECT_NAME": "STARLINK-35684", "OBJECT_ID": "2025-262C", "EPOCH": "2025-12-03T12:00:02.998944", "MEAN_MOTION": 15.5972351, "ECCENTRICITY": 0.0001325, "INCLINATION": 42.9995, "RA_OF_ASC_NODE": 125.24, "ARG_OF_PERICENTER": 269.5966, "MEAN_ANOMALY": 250.232, "EPHEMERIS_TYPE": 0, "CLASSIFICATION_TYPE": "U", "NORAD_CAT_ID": 66458, "ELEMENT_SET_NO": 999, "REV_AT_EPOCH": 415, "BSTAR": -0.029473, "MEAN_MOTION_DOT": -0.02151744, "MEAN_MOTION_DDOT": 0}, "tle": {"line1": "1 66458U 25262C   25337.50003471 -.02151744  00000+0 -29473-1 0  9997", "line2": "2 66458  42.9995 125.2400 0001325 269.5966 250.2320 15.59723510  4159"}}, "geometry": {"type": "Point", "coordinates": [13.288065756347494, -41.538846443909044]}}]}